NORAD_CAT_ID,OBJECT_NAME,OBJECT_TYPE,EPOCH,MEAN_MOTION,ECCENTRICITY,INCLINATION,RA_OF_ASC_NODE,ARG_OF_PERICENTER,MEAN_ANOMALY,BSTAR,MEAN_MOTION_DOT,MEAN_MOTION_DDOT,TLE_LINE0,TLE_LINE1,TLE_LINE2,SEMIMAJOR_AXIS,PERIOD,APOGEE,PERIGEE,DECAYED
55273.0,STARLINK-5291,PAYLOAD,2024-01-03 20:01:26,14.9833048,0.0002277,69.9986,251.1216,268.1331,91.9567,-1.4724e-05,-2.69e-06,0.0,0 STARLINK-5291,1 55273U 23010E   24003.83433235 -.00000269  00000-0 -14724-4 0  9999,2 55273  69.9986 251.1216 0002277 268.1331  91.9567 14.98330480 53264,6950.191,96.107,573.639,570.474,0.0
55273.0,STARLINK-5291,PAYLOAD,2024-01-03 21:37:34,14.98329451,0.0002364,69.9985,250.953,270.7586,89.3302,-1.6028e-05,-2.84e-06,0.0,0 STARLINK-5291,1 55273U 23010E   24003.90109308 -.00000284  00000-0 -16028-4 0  9994,2 55273  69.9985 250.9530 0002364 270.7586  89.3302 14.98329451 53586,6950.195,96.107,573.703,570.417,0.0
55273.0,STARLINK-5291,PAYLOAD,2024-01-04 02:25:58,14.98337258,0.0002243,69.9986,250.4486,268.0285,92.0617,-0.00012339,-1.565e-05,0.0,0 STARLINK-5291,1 55273U 23010E   24004.10137046 -.00001565  00000-0 -12339-3 0  9990,2 55273  69.9986 250.4486 0002243 268.0285  92.0617 14.98337258 53612,6950.17,96.107,573.594,570.477,0.0
55273.0,STARLINK-5291,PAYLOAD,2024-01-04 20:03:27,14.98327434,0.0002291,69.9985,248.5969,264.6034,95.4863,-4.1716e-05,-5.91e-06,0.0,0 STARLINK-5291,1 55273U 23010E   24004.83573472 -.00000591  00000-0 -41716-4 0  9997,2 55273  69.9985 248.5969 0002291 264.6034  95.4863 14.98327434 53415,6950.201,96.107,573.658,570.474,0.0
55273.0,STARLINK-5291,PAYLOAD,2024-01-04 21:39:35,14.98328884,0.00023,69.9985,248.4294,258.4236,101.6665,-4.3979e-05,-6.18e-06,0.0,0 STARLINK-5291,1 55273U 23010E   24004.90249355 -.00000618  00000-0 -43979-4 0  9998,2 55273  69.9985 248.4294 0002300 258.4236 101.6665 14.98328884 53736,6950.196,96.107,573.66,570.463,0.0
55273.0,STARLINK-5291,PAYLOAD,2024-01-05 15:17:03,14.9834784,0.0002257,69.998,246.5775,264.4194,95.6708,-0.00027788,-3.408e-05,0.0,0 STARLINK-5291,1 55273U 23010E   24005.63685119 -.00003408  00000-0 -27788-3 0  9990,2 55273  69.9980 246.5775 0002257 264.4194  95.6708 14.98347840 53840,6950.138,96.106,573.571,570.434,0.0
55273.0,STARLINK-5291,PAYLOAD,2024-01-05 20:05:28,14.98329804,0.0002228,69.9982,246.0721,262.7217,97.3688,2.5239e-05,2.08e-06,0.0,0 STARLINK-5291,1 55273U 23010E   24005.83713140  .00000208  00000-0  25239-4 0  9991,2 55273  69.9982 246.0721 0002228 262.7217  97.3688 14.98329804 53568,6950.193,96.107,573.607,570.51,0.0
55273.0,STARLINK-5291,PAYLOAD,2024-01-05 21:41:36,14.98330857,0.0002347,69.9982,245.9036,262.7232,97.366,3.3735e-05,3.1e-06,0.0,0 STARLINK-5291,1 55273U 23010E   24005.90389026  .00000310  00000-0  33735-4 0  9995,2 55273  69.9982 245.9036 0002347 262.7232  97.3660 14.98330857 53889,6950.19,96.107,573.686,570.424,0.0
55273.0,STARLINK-5291,PAYLOAD,2024-01-06 02:30:00,14.98331325,0.000223,69.9984,245.3989,262.0846,98.006,3.4364e-05,3.17e-06,0.0,0 STARLINK-5291,1 55273U 23010E   24006.10416990  .00000317  00000-0  34364-4 0  9995,2 55273  69.9984 245.3989 0002230 262.0846  98.0060 14.98331325 53914,6950.189,96.107,573.604,570.504,0.0
55273.0,STARLINK-5291,PAYLOAD,2024-01-06 20:07:29,14.98328423,0.0002378,69.9982,243.5468,264.8026,95.2862,1.7669e-05,1.18e-06,0.0,0 STARLINK-5291,1 55273U 23010E   24006.83853217  .00000118  00000-0  17669-4 0  9990,2 55273  69.9982 243.5468 0002378 264.8026  95.2862 14.98328423 53719,6950.198,96.107,573.716,570.41,0.0
55273.0,STARLINK-5291,PAYLOAD,2024-01-06 21:43:37,14.98328641,0.0002337,69.9982,243.3784,263.1613,96.928,2.263e-05,1.77e-06,0.0,0 STARLINK-5291,1 55273U 23010E   24006.90529182  .00000177  00000-0  22630-4 0  9998,2 55273  69.9982 243.3784 0002337 263.1613  96.9280 14.98328641 54037,6950.197,96.107,573.686,570.438,0.0
55273.0,STARLINK-5291,PAYLOAD,2024-01-07 00:55:53,14.98328746,0.0002335,69.9982,243.0417,263.3075,96.7818,2.251e-05,1.76e-06,0.0,0 STARLINK-5291,1 55273U 23010E   24007.03881181  .00000176  00000-0  22510-4 0  9999,2 55273  69.9982 243.0417 0002335 263.3075  96.7818 14.98328746 54052,6950.197,96.107,573.685,570.439,0.0
55273.0,STARLINK-5291,PAYLOAD,2024-01-07 20:09:28,14.98346576,0.0002468,69.998,241.0213,270.3038,89.7839,0.00012286,1.374e-05,0.0,0 STARLINK-5291,1 55273U 23010E   24007.83991348  .00001374  00000-0  12286-3 0  9993,2 55273  69.9980 241.0213 0002468 270.3038  89.7839 14.98346576 53860,6950.142,96.106,573.722,570.291,0.0
55273.0,STARLINK-5291,PAYLOAD,2024-01-07 21:45:36,14.98346461,0.000247,69.9979,240.8529,270.4102,89.6774,0.0001196,1.335e-05,0.0,0 STARLINK-5291,1 55273U 23010E   24007.90667294  .00001335  00000-0  11960-3 0  9996,2 55273  69.9979 240.8529 0002470 270.4102  89.6774 14.98346461 54187,6950.142,96.106,573.724,570.29,0.0
55273.0,STARLINK-5291,PAYLOAD,2024-01-08 00:57:52,14.9834814,0.0002461,69.9979,240.5163,270.2861,89.8016,0.00013424,1.51e-05,0.0,0 STARLINK-5291,1 55273U 23010E   24008.04018999  .00001510  00000-0  13424-3 0  9996,2 55273  69.9979 240.5163 0002461 270.2861  89.8016 14.98348140 54208,6950.137,96.106,573.712,570.291,0.0
55273.0,STARLINK-5291,PAYLOAD,2024-01-08 20:11:30,14.98327042,0.0002498,69.9979,238.4964,270.5599,89.5273,-6.2514e-05,-8.39e-06,0.0,0 STARLINK-5291,1 55273U 23010E   24008.84132701 -.00000839  00000-0 -62514-4 0  9992,2 55273  69.9979 238.4964 0002498 270.5599  89.5273 14.98327042 54013,6950.202,96.107,573.803,570.331,0.0
55273.0,STARLINK-5291,PAYLOAD,2024-01-08 21:47:38,14.98326374,0.0002459,69.9981,238.3283,268.9695,91.1182,-6.8686e-05,-9.12e-06,0.0,0 STARLINK-5291,1 55273U 23010E   24008.90808748 -.00000912  00000-0 -68686-4 0  9998,2 55273  69.9981 238.3283 0002459 268.9695  91.1182 14.98326374 54334,6950.204,96.107,573.778,570.36,0.0
55273.0,STARLINK-5291,PAYLOAD,2024-01-09 13:48:59,14.98331324,0.0002552,69.9978,236.6443,271.7952,88.2914,-0.00019496,-2.418e-05,0.0,0 STARLINK-5291,1 55273U 23010E   24009.57568914 -.00002418  00000-0 -19496-3 0  9997,2 55273  69.9978 236.6443 0002552 271.7952  88.2914 14.98331324 54433,6950.189,96.107,573.827,570.28,0.0
55273.0,STARLINK-5291,PAYLOAD,2024-01-09 20:13:31,14.98332786,0.0002417,69.9982,235.9723,268.6156,91.4726,-0.00013745,-1.733e-05,0.0,0 STARLINK-5291,1 55273U 23010E   24009.84272606 -.00001733  00000-0 -13745-3 0  9997,2 55273  69.9982 235.9723 0002417 268.6156  91.4726 14.98332786 54162,6950.184,96.107,573.729,570.369,0.0
55273.0,STARLINK-5291,PAYLOAD,2024-01-09 21:49:39,14.98334518,0.0002405,69.998,235.8035,269.5579,90.5304,-0.00011714,-1.49e-05,0.0,0 STARLINK-5291,1 55273U 23010E   24009.90948430 -.00001490  00000-0 -11714-3 0  9993,2 55273  69.9980 235.8035 0002405 269.5579  90.5304 14.98334518 54483,6950.179,96.107,573.715,570.372,0.0
55273.0,STARLINK-5291,PAYLOAD,2024-01-10 01:01:55,14.98333793,0.0002197,69.9985,235.467,272.4468,87.6439,-0.00012151,-1.543e-05,0.0,0 STARLINK-5291,1 55273U 23010E   24010.04300489 -.00001543  00000-0 -12151-3 0  9991,2 55273  69.9985 235.4670 0002197 272.4468  87.6439 14.98333793 54500,6950.181,96.107,573.573,570.519,0.0
55273.0,STARLINK-5291,PAYLOAD,2024-01-10 18:39:24,14.98319794,0.000233,69.9984,233.6148,274.8711,85.2182,6.2793e-05,6.56e-06,0.0,0 STARLINK-5291,1 55273U 23010E   24010.77737040  .00000656  00000-0  62793-4 0  9998,2 55273  69.9984 233.6148 0002330 274.8711  85.2182 14.98319794 54307,6950.224,96.108,573.709,570.47,0.0
55273.0,STARLINK-5291,PAYLOAD,2024-01-11 13:53:01,14.9833045,0.0002221,69.9987,231.5956,272.5299,87.5605,4.7901e-05,4.79e-06,0.0,0 STARLINK-5291,1 55273U 23010E   24011.57848710  .00000479  00000-0  47901-4 0  9991,2 55273  69.9987 231.5956 0002221 272.5299  87.5605 14.98330450 54733,6950.191,96.107,573.6,570.513,0.0
55273.0,STARLINK-5291,PAYLOAD,2024-01-11 18:41:25,14.98331609,0.0002203,69.9988,231.0906,273.1356,86.9551,5.9481e-05,6.17e-06,0.0,0 STARLINK-5291,1 55273U 23010E   24011.77876597  .00000617  00000-0  59481-4 0  9997,2 55273  69.9988 231.0906 0002203 273.1356  86.9551 14.98331609 54454,6950.188,96.107,573.584,570.522,0.0
55273.0,STARLINK-5291,PAYLOAD,2024-01-11 21:53:41,14.98331776,0.0002202,69.9987,230.7539,273.1734,86.9173,5.9661e-05,6.19e-06,0.0,0 STARLINK-5291,1 55273U 23010E   24011.91228575  .00000619  00000-0  59661-4 0  9992,2 55273  69.9987 230.7539 0002202 273.1734  86.9173 14.98331776 54781,6950.187,96.107,573.583,570.522,0.0
55273.0,STARLINK-5291,PAYLOAD,2024-01-12 01:05:57,14.98332966,0.000225,69.9988,230.4173,276.4318,83.6584,6.9984e-05,7.42e-06,0.0,0 STARLINK-5291,1 55273U 23010E   24012.04580461  .00000742  00000-0  69984-4 0  9998,2 55273  69.9988 230.4173 0002250 276.4318  83.6584 14.98332966 54805,6950.184,96.107,573.613,570.485,0.0
55273.0,STARLINK-5291,PAYLOAD,2024-01-12 18:43:27,14.98322685,0.0002191,69.9991,228.5655,273.3507,86.7401,-3.4724e-05,-5.07e-06,0.0,0 STARLINK-5291,1 55273U 23010E   24012.78017519 -.00000507  00000-0 -34724-4 0  9993,2 55273  69.9991 228.5655 0002191 273.3507  86.7401 14.98322685 54609,6950.216,96.107,573.603,570.558,0.0
55273.0,STARLINK-5291,PAYLOAD,2024-01-12 21:55:43,14.98321592,0.000221,69.9991,228.2288,273.2772,86.8134,-4.7506e-05,-6.6e-06,0.0,0 STARLINK-5291,1 55273U 23010E   24012.91369678 -.00000660  00000-0 -47506-4 0  9996,2 55273  69.9991 228.2288 0002210 273.2772  86.8134 14.98321592 54939,6950.219,96.108,573.62,570.548,0.0
55273.0,STARLINK-5291,PAYLOAD,2024-01-13 01:07:59,14.98322169,0.0002208,69.9991,227.8922,272.9913,87.0994,-4.0485e-05,-5.76e-06,0.0,0 STARLINK-5291,1 55273U 23010E   24013.04721676 -.00000576  00000-0 -40485-4 0  9996,2 55273  69.9991 227.8922 0002208 272.9913  87.0994 14.98322169 54959,6950.217,96.108,573.617,570.547,0.0
55273.0,STARLINK-5291,PAYLOAD,2024-01-13 18:45:27,14.98333798,0.0002324,69.9989,226.0402,274.5241,85.5653,-8.3078e-06,-1.92e-06,0.0,0 STARLINK-5291,1 55273U 23010E   24013.78156898 -.00000192  00000-0 -83078-5 0  9995,2 55273  69.9989 226.0402 0002324 274.5241  85.5653 14.98333798 54754,6950.181,96.107,573.661,570.431,0.0
